0 FENGYUN 1C DEB
1 32328U 99025CXV 13281.10371454  .00313734  00000-0  52903-2 0  4732
2 32328 098.7209 146.3266 0043006 144.8299 005.6372 15.49535256341302
0 FENGYUN 1C DEB
1 32328U 99025CXV 13281.86258164  .00557422  00000-0  89770-2 0  4744
2 32328 098.7187 147.2446 0042245 141.7067 280.0693 15.50058404341425
0 FENGYUN 1C DEB
1 32328U 99025CXV 13285.39767795  .00375197  00000-0  56145-2 0  4759
2 32328 098.7208 151.5272 0041692 129.4192 224.5828 15.52721132341971
0 FENGYUN 1C DEB
1 32328U 99025CXV 13285.42148295  .00454226  00000-0  67059-2 0  4769
2 32328 098.7184 151.5569 0040063 129.5141 357.4785 15.52913034341971
0 FENGYUN 1C DEB
1 32328U 99025CXV 13292.85669971  .00505058  00000-0  59216-2 0  4781
2 32328 098.7210 160.6164 0038035 101.6913 241.9169 15.59045903343138
0 FENGYUN 1C DEB
1 32328U 99025CXV 13292.85895043  .00501767  00000-0  59475-2 0  4816
2 32328 098.7004 160.5827 0031628 095.2034 260.9585 15.59025515343137
0 FENGYUN 1C DEB
1 32328U 99025CXV 13292.92083210  .00505635  00000-0  58950-2 0  4779
2 32328 098.6973 160.7121 0040032 090.9537 252.2255 15.59102358343149
